KUZGTU 1 (RS47S)        
1 57217U 23091AV  26167.24921569  .00010544  00000+0  36655-3 0  9998
2 57217  97.5066 231.7196 0012335 100.8863 259.3766 15.29845700164231
SONATE-2                
1 59112U 24043Q   26166.66172283  .00034167  00000+0  44548-3 0  9995
2 59112  97.5531 316.9638 0007014 200.7175 159.3797 15.58618776127656
MESAT1                  
1 60209U 24125G   26167.14602184  .00048436  00000+0  53014-3 0  9999
2 60209  97.2286  24.6049 0009433 207.5378 152.5383 15.63102289109407
OOV-CUBE (TUBSAT-30)    
1 60240U 24128F   26167.32354354  .00001579  00000+0  13083-3 0  9999
2 60240  61.9943 228.5853 0044694 133.5156 226.9663 15.02771261105989
COLIBRI-S (RS67S)       
1 61746U 24199M   26167.28597002  .00017802  00000+0  34551-3 0  9992
2 61746  97.2992  41.1322 0006262 283.4426  76.6126 15.47694231137272
HORS 3 (RS81S)          
1 61753U 24199U   26167.25289437  .00031389  00000+0  46986-3 0  9998
2 61753  97.2976  43.0753 0003722 283.7544  76.3296 15.54918267137410
HORS 4 (RS82S)          
1 61754U 24199V   26167.28045643  .00039379  00000+0  49449-3 0  9995
2 61754  97.2922  44.2991 0003051 264.4799  95.6110 15.59610687137501
SIT-2086                
1 61764U 24199AF  26167.29443499  .00030499  00000+0  48878-3 0  9997
2 61764  97.2933  43.5973 0004489 254.5378 105.5380 15.53034494134298
HYPERVIEW 1G (RS66S)    
1 61772U 24199AP  26167.30054371  .00122910  00000+0  79732-3 0  9998
2 61772  97.2868  46.9754 0003565 223.1722 136.9264 15.75636831134530
ALTAIR (RS65S)          
1 61779U 24199AW  26167.26565707  .00007021  00000+0  19580-3 0  9990
2 61779  97.3027  36.6228 0011197 315.0442  44.9895 15.37010974136977
ASRTU-1 (AO-123)        
1 61781U 24199AY  26167.25275125  .00006263  00000+0  18251-3 0  9995
2 61781  97.2997  35.9322 0012385 317.9891  42.0402 15.35664562133786
SAMSAT-IONOSPHERE (RS7*)
1 61784U 24199BB  26167.28848801  .00037423  00000+0  50745-3 0  9994
2 61784  97.2944  43.1550 0005847 281.1594  78.9004 15.57557479137425
RTU MIREA 1 (RS51S)     
1 61785U 24199BC  26167.25078574  .00047386  00000+0  56340-3 0  9990
2 61785  97.2932  43.9433 0005497 273.1517  86.9112 15.60997873134323
TEVEL2-4                
1 63213U 25052D   26167.26931493  .00015325  00000+0  45918-3 0  9993
2 63213  97.3909  63.6594 0004838 105.2183 254.9595 15.34584651 69972
TEVEL2-5                
1 63214U 25052E   26167.22449878  .00014846  00000+0  44740-3 0  9990
2 63214  97.3905  63.5630 0004772 106.2124 253.9644 15.34410559 69960
TEVEL2-6                
1 63215U 25052F   26167.17159245  .00015102  00000+0  45558-3 0  9995
2 63215  97.3912  63.4942 0004675 107.3196 252.8558 15.34373601 69954
TEVEL2-1                
1 63217U 25052H   26167.26550395  .00014362  00000+0  44072-3 0  9995
2 63217  97.3881  63.2139 0004726 115.4259 244.7474 15.33842232 69951
TEVEL2-3                
1 63218U 25052J   26167.26018018  .00014748  00000+0  45169-3 0  9993
2 63218  97.3885  63.2303 0004686 115.4996 244.6732 15.33897965 69951
TEVEL2-2                
1 63219U 25052K   26167.26582291  .00014493  00000+0  44459-3 0  9991
2 63219  97.3884  63.2168 0004696 115.9068 244.2659 15.33851140 69955
TEVEL2-9                
1 63237U 25052AD  26167.24205412  .00013382  00000+0  43670-3 0  9996
2 63237  97.3945  62.5701 0007711 133.4676 226.7209 15.31874354 69887
TEVEL2-7                
1 63238U 25052AE  26167.21744605  .00012834  00000+0  42279-3 0  9991
2 63238  97.3947  62.4621 0007791 133.8120 226.3767 15.31578463 69872
TEVEL2-8                
1 63239U 25052AF  26167.22568787  .00012612  00000+0  41573-3 0  9998
2 63239  97.3946  62.4473 0007810 134.2728 225.9156 15.31562916 69871
INNOSAT 16 (RS92S7)     
1 64878U 25155C   26167.28048043  .00004640  00000+0  18614-3 0  9998
2 64878  97.4565 134.4111 0010447 178.5173 181.6098 15.25448848 80532
GEOSCAN 6 (RS92S6)      
1 64879U 25155D   26167.26603356  .00008378  00000+0  28963-3 0  9991
2 64879  97.4557 135.8143 0008244 165.2789 194.8693 15.30136767 80629
GEOSCAN 1 (RS92S1)      
1 64880U 25155E   26167.26883993  .00009010  00000+0  30561-3 0  9991
2 64880  97.4554 135.9643 0008185 164.9883 195.1603 15.30731214 80633
239ALFEROV (RS61S)      
1 64881U 25155F   26167.23979474  .00011930  00000+0  37720-3 0  9997
2 64881  97.4553 136.4934 0007911 161.9794 198.1730 15.32918493 80661
GEOSCAN 2 (RS92S2)      
1 64890U 25155Q   26167.26268739  .00009291  00000+0  31243-3 0  9996
2 64890  97.4552 136.1102 0008027 152.1859 207.9812 15.31002385 80648
GEOSCAN 5 (RS92S5)      
1 64891U 25155R   26167.29427915  .00011750  00000+0  36795-3 0  9993
2 64891  97.4546 136.6855 0006626 165.2914 194.8523 15.33237348 80680
GEOSCAN 4 (RS92S4)      
1 64892U 25155S   26167.27856134  .00012347  00000+0  38463-3 0  9998
2 64892  97.4549 136.7178 0006701 165.1321 195.0120 15.33391191 80681
GEOSCAN 3 (RS92S3)      
1 64893U 25155T   26167.28048848  .00014657  00000+0  42840-3 0  9995
2 64893  97.4538 137.1468 0006624 163.2143 196.9321 15.35369398 80715
