OBJECT_NAME,OBJECT_ID,EPOCH,MEAN_MOTION,ECCENTRICITY,INCLINATION,RA_OF_ASC_NODE,ARG_OF_PERICENTER,MEAN_ANOMALY,EPHEMERIS_TYPE,CLASSIFICATION_TYPE,NORAD_CAT_ID,ELEMENT_SET_NO,REV_AT_EPOCH,BSTAR,MEAN_MOTION_DOT,MEAN_MOTION_DDOT
KUZGTU 1 (RS47S),2023-091AV,2026-06-16T05:58:52.235616,15.29845700,.00123352,97.5066,231.7196,100.8863,259.3766,0,U,57217,999,16423,.36655068E-3,.10544E-3,0
SONATE-2,2024-043Q,2026-06-15T15:52:52.852512,15.58618776,.00070146,97.5531,316.9638,200.7175,159.3797,0,U,59112,999,12765,.44547502E-3,.34167E-3,0
MESAT1,2024-125G,2026-06-16T03:30:16.286976,15.63102289,.00094338,97.2286,24.6049,207.5378,152.5383,0,U,60209,999,10940,.53013569E-3,.48436E-3,0
OOV-CUBE (TUBSAT-30),2024-128F,2026-06-16T07:45:54.161856,15.02771261,.00446947,61.9943,228.5853,133.5156,226.9663,0,U,60240,999,10598,.13082539E-3,.1579E-4,0
COLIBRI-S (RS67S),2024-199M,2026-06-16T06:51:47.809728,15.47694231,.00062625,97.2992,41.1322,283.4426,76.6126,0,U,61746,999,13727,.34550976E-3,.17802E-3,0
HORS 3 (RS81S),2024-199U,2026-06-16T06:04:10.073568,15.54918267,.00037226,97.2976,43.0753,283.7544,76.3296,0,U,61753,999,13741,.46985512E-3,.31389E-3,0
HORS 4 (RS82S),2024-199V,2026-06-16T06:43:51.435552,15.59610687,.00030511,97.2922,44.2991,264.4799,95.6110,0,U,61754,999,13750,.49448635E-3,.39379E-3,0
SIT-2086,2024-199AF,2026-06-16T07:03:59.183136,15.53034494,.00044897,97.2933,43.5973,254.5378,105.5380,0,U,61764,999,13429,.48877521E-3,.30499E-3,0
HYPERVIEW 1G (RS66S),2024-199AP,2026-06-16T07:12:46.976544,15.75636831,.00035659,97.2868,46.9754,223.1722,136.9264,0,U,61772,999,13453,.79732109E-3,.12291E-2,0
ALTAIR (RS65S),2024-199AW,2026-06-16T06:22:32.770848,15.37010974,.00111979,97.3027,36.6228,315.0442,44.9895,0,U,61779,999,13697,.19580341E-3,.7021E-4,0
ASRTU-1 (AO-123),2024-199AY,2026-06-16T06:03:57.708000,15.35664562,.00123853,97.2997,35.9322,317.9891,42.0402,0,U,61781,999,13378,.1825067E-3,.6263E-4,0
SAMSAT-IONOSPHERE (RS75S),2024-199BB,2026-06-16T06:55:25.364064,15.57557479,.00058478,97.2944,43.1550,281.1594,78.9004,0,U,61784,999,13742,.50745143E-3,.37423E-3,0
RTU MIREA 1 (RS51S),2024-199BC,2026-06-16T06:01:07.887936,15.60997873,.0005497,97.2932,43.9433,273.1517,86.9112,0,U,61785,999,13432,.56339897E-3,.47386E-3,0
TEVEL2-4,2025-052D,2026-06-16T06:27:48.809952,15.34584651,.00048382,97.3909,63.6594,105.2183,254.9595,0,U,63213,999,6997,.45917862E-3,.15325E-3,0
TEVEL2-5,2025-052E,2026-06-16T05:23:16.694592,15.34410559,.0004772,97.3905,63.5630,106.2124,253.9644,0,U,63214,999,6996,.44739628E-3,.14846E-3,0
TEVEL2-6,2025-052F,2026-06-16T04:07:05.587680,15.34373601,.00046751,97.3912,63.4942,107.3196,252.8558,0,U,63215,999,6995,.45558233E-3,.15102E-3,0
TEVEL2-1,2025-052H,2026-06-16T06:22:19.541280,15.33842232,.00047261,97.3881,63.2139,115.4259,244.7474,0,U,63217,999,6995,.44071644E-3,.14362E-3,0
TEVEL2-3,2025-052J,2026-06-16T06:14:39.567552,15.33897965,.00046869,97.3885,63.2303,115.4996,244.6732,0,U,63218,999,6995,.45169107E-3,.14748E-3,0
TEVEL2-2,2025-052K,2026-06-16T06:22:47.099424,15.33851140,.00046966,97.3884,63.2168,115.9068,244.2659,0,U,63219,999,6995,.4445866E-3,.14493E-3,0
TEVEL2-9,2025-052AD,2026-06-16T05:48:33.475968,15.31874354,.00077118,97.3945,62.5701,133.4676,226.7209,0,U,63237,999,6988,.43669791E-3,.13382E-3,0
TEVEL2-7,2025-052AE,2026-06-16T05:13:07.338720,15.31578463,.0007791,97.3947,62.4621,133.8120,226.3767,0,U,63238,999,6987,.42278524E-3,.12834E-3,0
TEVEL2-8,2025-052AF,2026-06-16T05:24:59.431968,15.31562916,.00078109,97.3946,62.4473,134.2728,225.9156,0,U,63239,999,6987,.41573278E-3,.12612E-3,0
INNOSAT 16 (RS92S7),2025-155C,2026-06-16T06:43:53.509152,15.25448848,.00104471,97.4565,134.4111,178.5173,181.6098,0,U,64878,999,8053,.18613952E-3,.464E-4,0
GEOSCAN 6 (RS92S6),2025-155D,2026-06-16T06:23:05.299584,15.30136767,.00082448,97.4557,135.8143,165.2789,194.8693,0,U,64879,999,8062,.28962784E-3,.8378E-4,0
GEOSCAN 1 (RS92S1),2025-155E,2026-06-16T06:27:07.769952,15.30731214,.00081855,97.4554,135.9643,164.9883,195.1603,0,U,64880,999,8063,.30560827E-3,.901E-4,0
239ALFEROV (RS61S),2025-155F,2026-06-16T05:45:18.265536,15.32918493,.00079112,97.4553,136.4934,161.9794,198.1730,0,U,64881,999,8066,.37719751E-3,.1193E-3,0
GEOSCAN 2 (RS92S2),2025-155Q,2026-06-16T06:18:16.190496,15.31002385,.00080277,97.4552,136.1102,152.1859,207.9812,0,U,64890,999,8064,.31242645E-3,.9291E-4,0
GEOSCAN 5 (RS92S5),2025-155R,2026-06-16T07:03:45.718560,15.33237348,.00066263,97.4546,136.6855,165.2914,194.8523,0,U,64891,999,8068,.36795408E-3,.1175E-3,0
GEOSCAN 4 (RS92S4),2025-155S,2026-06-16T06:41:07.699776,15.33391191,.00067018,97.4549,136.7178,165.1321,195.0120,0,U,64892,999,8068,.3846306E-3,.12347E-3,0
GEOSCAN 3 (RS92S3),2025-155T,2026-06-16T06:43:54.204672,15.35369398,.00066245,97.4538,137.1468,163.2143,196.9321,0,U,64893,999,8071,.42839837E-3,.14657E-3,0
